{
    "links": {
        "self": "http://www.neowsapp.com/rest/v1/neo/3841717?api_key=iIulBulltgU6a56xZRHN4H3l9WmuAYTsLGpBGhQ2"
    },
    "id": "3841717",
    "neo_reference_id": "3841717",
    "name": "(2019 JR1)",
    "designation": "2019 JR1",
    "nasa_jpl_url": "http://ssd.jpl.nasa.gov/sbdb.cgi?sstr=3841717",
    "absolute_magnitude_h": 24.5,
    "estimated_diameter": {
        "kilometers": {
            "estimated_diameter_min": 0.0334622374,
            "estimated_diameter_max": 0.0748238376
        },
        "meters": {
            "estimated_diameter_min": 33.4622374455,
            "estimated_diameter_max": 74.8238376074
        },
        "miles": {
            "estimated_diameter_min": 0.0207924639,
            "estimated_diameter_max": 0.0464933628
        },
        "feet": {
            "estimated_diameter_min": 109.7842471007,
            "estimated_diameter_max": 245.4850393757
        }
    },
    "is_potentially_hazardous_asteroid": false,
    "close_approach_data": [
        {
            "close_approach_date": "2019-05-18",
            "close_approach_date_full": "2019-May-18 17:46",
            "epoch_date_close_approach": 1558201560000,
            "relative_velocity": {
                "kilometers_per_second": "10.0379567995",
                "kilometers_per_hour": "36136.6444782979",
                "miles_per_hour": "22453.9055648624"
            },
            "miss_distance": {
                "astronomical": "0.0414756077",
                "lunar": "16.1340113953",
                "kilometers": "6204662.568875599",
                "miles": "3855398.5430933062"
            },
            "orbiting_body": "Earth"
        }
    ],
    "orbital_data": {
        "orbit_id": "4",
        "orbit_determination_date": "2019-05-12 08:22:45",
        "first_observation_date": "2019-05-02",
        "last_observation_date": "2019-05-11",
        "data_arc_in_days": 9,
        "observations_used": 37,
        "orbit_uncertainty": "8",
        "minimum_orbit_intersection": ".0240086",
        "jupiter_tisserand_invariant": "4.819",
        "epoch_osculation": "2458608.5",
        "eccentricity": ".3828149638129166",
        "semi_major_axis": "1.339389395479667",
        "inclination": "4.450831947237061",
        "ascending_node_longitude": "32.65233255244141",
        "orbital_period": "566.1854584762027",
        "perihelion_distance": ".8266510925177141",
        "perihelion_argument": "273.327377383425",
        "aphelion_distance": "1.85212769844162",
        "perihelion_time": "2458674.855897678592",
        "mean_anomaly": "317.8086600306123",
        "mean_motion": ".6358340621620382",
        "equinox": "J2000",
        "orbit_class": {
            "orbit_class_type": "APO",
            "orbit_class_description": "Near-Earth asteroid orbits which cross the Earth’s orbit similar to that of 1862 Apollo",
            "orbit_class_range": "a (semi-major axis) > 1.0 AU; q (perihelion) < 1.017 AU"
        }
    },
    "is_sentry_object": false
}